NORAD_CAT_ID,OBJECT_NAME,OBJECT_TYPE,EPOCH,MEAN_MOTION,ECCENTRICITY,INCLINATION,RA_OF_ASC_NODE,ARG_OF_PERICENTER,MEAN_ANOMALY,BSTAR,MEAN_MOTION_DOT,MEAN_MOTION_DDOT,TLE_LINE0,TLE_LINE1,TLE_LINE2,SEMIMAJOR_AXIS,PERIOD,APOGEE,PERIGEE,DECAYED
53981.0,STARLINK-5149,PAYLOAD,2022-12-11 22:00:01,15.49917433,0.0001426,53.2157,121.5229,38.2802,101.4859,0.00048937,0.00027452,0.0,0 STARLINK-5149,1 53981U 22125T   22345.91668981  .00027452  00000-0  48937-3 0  9996,2 53981  53.2157 121.5229 0001426  38.2802 101.4859 15.49917433  1307,6795.104,92.908,417.93800000000016,416.0,0.0
53981.0,STARLINK-5149,PAYLOAD,2022-12-12 06:00:00,15.49910455,0.0001194,53.2156,119.9285,45.7965,154.8717,0.0011353,0.00064574,0.0,0 STARLINK-5149,1 53981U 22125T   22346.25001157  .00064574  00000-0  11353-2 0  9997,2 53981  53.2156 119.9285 0001194  45.7965 154.8717 15.49910455 10968,6795.125,92.909,417.801,416.17800000000005,0.0
53981.0,STARLINK-5149,PAYLOAD,2022-12-12 14:00:01,15.49988272,0.0001437,53.2159,118.3373,44.9051,216.7346,-0.0016814,-0.00095077,0.0,0 STARLINK-5149,1 53981U 22125T   22346.58334491 -.00095077  00000-0 -16814-2 0  9994,2 53981  53.2159 118.3373 0001437  44.9051 216.7346 15.49988272  1305,6794.897,92.904,417.739,415.786,0.0
53981.0,STARLINK-5149,PAYLOAD,2022-12-12 22:00:00,15.50005959,0.000149,53.2155,116.7422,37.9286,284.6798,-0.0043395,-0.0024037,0.0,0 STARLINK-5149,1 53981U 22125T   22346.91667824 -.00240370  00000-0 -43395-2 0  9992,2 53981  53.2155 116.7422 0001490  37.9286 284.6798 15.50005959 11062,6794.846,92.903,417.723,415.698,0.0
53981.0,STARLINK-5149,PAYLOAD,2022-12-13 06:00:00,15.49720573,0.0001482,53.2167,115.1436,42.1974,341.4254,-0.0062692,-0.00339312,0.0,0 STARLINK-5149,1 53981U 22125T   22347.25001157 -.00339312  00000-0 -62692-2 0  9997,2 53981  53.2167 115.1436 0001482  42.1974 341.4254 15.49720573 11126,6795.68,92.92,418.552,416.538,0.0
53981.0,STARLINK-5149,PAYLOAD,2022-12-13 14:00:01,15.4954365,0.0001364,53.2173,113.5507,54.0948,30.112,-0.017794,-0.00918,0.0,0 STARLINK-5149,1 53981U 22125T   22347.58334491 -.00918000  00000-0 -17794-1 0  9992,2 53981  53.2173 113.5507 0001364  54.0948  30.1120 15.49543650 11174,6796.196999999999,92.931,418.989,417.135,0.0
53981.0,STARLINK-5149,PAYLOAD,2022-12-13 22:00:00,15.488923000000002,0.000168,53.2172,111.9593,39.9525,104.3597,-0.018188,-0.00917079,0.0,0 STARLINK-5149,1 53981U 22125T   22347.91667824 -.00917079  00000-0 -18188-1 0  9991,2 53981  53.2172 111.9593 0001680  39.9525 104.3597 15.48892300  1308,6798.102,92.97,421.109,418.825,0.0
53981.0,STARLINK-5149,PAYLOAD,2022-12-14 14:00:01,15.47591902,0.0001561,53.2174,108.7817,48.3648,213.8098,-0.019082,-0.00918956,0.0,0 STARLINK-5149,1 53981U 22125T   22348.58334491 -.00918956  00000-0 -19082-1 0  9995,2 53981  53.2174 108.7817 0001561  48.3648 213.8098 15.47591902 11329,6801.91,93.048,424.837,422.713,0.0
53981.0,STARLINK-5149,PAYLOAD,2022-12-14 15:58:21,15.47861511,0.0001909,53.216,108.3979,37.8455,322.2688,-0.0049619999999999,-0.00254397,0.0,0 STARLINK-5149,1 53981U 22125T   22348.66552373 -.00254397  00000-0 -49620-2 0  9999,2 53981  53.2160 108.3979 0001909  37.8455 322.2688 15.47861511 11331,6801.12,93.032,424.283,421.687,0.0
53981.0,STARLINK-5149,PAYLOAD,2022-12-14 20:37:24,15.47499618,0.0001277,53.2159,107.4753,48.8694,311.2425,-0.0050382,-0.00255018,0.0,0 STARLINK-5149,1 53981U 22125T   22348.85930698 -.00255018  00000-0 -50382-2 0  9998,2 53981  53.2159 107.4753 0001277  48.8694 311.2425 15.47499618 11303,6802.18,93.053,424.914,423.177,0.0
53981.0,STARLINK-5149,PAYLOAD,2022-12-15 02:49:31,15.47127761,0.0001848,53.2159,106.2449,39.9663,320.1481,-0.0088793,-0.0043346,0.0,0 STARLINK-5149,1 53981U 22125T   22349.11772636 -.00433460  00000-0 -88793-2 0  9990,2 53981  53.2159 106.2449 0001848  39.9663 320.1481 15.47127761 11402,6803.27,93.076,426.392,423.878,0.0
53981.0,STARLINK-5149,PAYLOAD,2022-12-15 10:34:57,15.46349433,0.0002308,53.2161,104.7083,44.0217,316.0975,-0.0108,-0.00508284,0.0,0 STARLINK-5149,1 53981U 22125T   22349.44094366 -.00508284  00000-0 -10800-1 0  9993,2 53981  53.2161 104.7083 0002308  44.0217 316.0975 15.46349433 11454,6805.553000000001,93.123,428.989,425.847,0.0
53981.0,STARLINK-5149,PAYLOAD,2022-12-15 12:08:02,15.46280453,0.0001187,53.2162,104.4009,31.2117,328.8962,-0.010361,-0.00487644,0.0,0 STARLINK-5149,1 53981U 22125T   22349.50558394 -.00487644  00000-0 -10361-1 0  9994,2 53981  53.2162 104.4009 0001187  31.2117 328.8962 15.46280453 11409,6805.755,93.127,428.42800000000005,426.812,0.0
53981.0,STARLINK-5149,PAYLOAD,2022-12-15 22:00:00,15.44985488,0.0002022,53.2172,102.4429,29.765,98.7514,-0.020789,-0.00915077,0.0,0 STARLINK-5149,1 53981U 22125T   22349.91667824 -.00915077  00000-0 -20789-1 0  9999,2 53981  53.2172 102.4429 0002022  29.7650  98.7514 15.44985488 11535,6809.558000000001,93.205,432.8,430.046,0.0
53981.0,STARLINK-5149,PAYLOAD,2022-12-16 14:00:01,15.43700517,0.0001453,53.2173,99.2845,46.8381,190.1459,-0.022346,-0.00939048,0.0,0 STARLINK-5149,1 53981U 22125T   22350.58334491 -.00939048  00000-0 -22346-1 0  9990,2 53981  53.2173  99.2845 0001453  46.8381 190.1459 15.43700517  1305,6813.3359999999975,93.282,436.191,434.211,0.0
53981.0,STARLINK-5149,PAYLOAD,2022-12-16 22:00:00,15.43034229,0.0001431,53.2172,97.7058,49.8022,240.2549,-0.02231,-0.00918344,0.0,0 STARLINK-5149,1 53981U 22125T   22350.91667824 -.00918344  00000-0 -22310-1 0  9993,2 53981  53.2172  97.7058 0001431  49.8022 240.2549 15.43034229 11683,6815.297,93.323,438.138,436.187,0.0
53981.0,STARLINK-5149,PAYLOAD,2022-12-17 14:00:01,15.41730849,0.0001409,53.2172,94.5565,48.1712,345.7325,-0.023249,-0.00916015,0.0,0 STARLINK-5149,1 53981U 22125T   22351.58335648 -.00916015  00000-0 -23249-1 0  9998,2 53981  53.2172  94.5565 0001409  48.1712 345.7325 15.41730849  1304,6819.138000000001,93.402,441.964,440.042,0.0
53981.0,STARLINK-5149,PAYLOAD,2022-12-17 22:00:00,15.41057406,0.0001561,53.2168,92.9835,41.1093,43.4584,-0.022858,-0.00883286,0.0,0 STARLINK-5149,1 53981U 22125T   22351.91667824 -.00883286  00000-0 -22858-1 0  9997,2 53981  53.2168  92.9835 0001561  41.1093  43.4584 15.41057406 11845,6821.124,93.442,444.054,441.925,0.0
53981.0,STARLINK-5149,PAYLOAD,2022-12-18 14:00:01,15.39776689,0.0001646,53.2172,89.8422,49.476000000000006,134.171,-0.024738,-0.00913425,0.0,0 STARLINK-5149,1 53981U 22125T   22352.58334491 -.00913425  00000-0 -24738-1 0  9990,2 53981  53.2172  89.8422 0001646  49.4760 134.1710 15.39776689 11941,6824.906,93.52,447.894,445.648,0.0
53981.0,STARLINK-5149,PAYLOAD,2022-12-18 22:00:00,15.39127351,0.0001646,53.2173,88.2733,44.206,187.812,-0.025362,-0.00916312,0.0,0 STARLINK-5149,1 53981U 22125T   22352.91667824 -.00916312  00000-0 -25362-1 0  9998,2 53981  53.2173  88.2733 0001646  44.2060 187.8120 15.39127351  1301,6826.826,93.56,449.814,447.567,0.0
53981.0,STARLINK-5149,PAYLOAD,2022-12-19 10:00:00,15.38149435,0.0001714,53.2175,85.9239,41.0951,82.0133,-0.026114,-0.0091384,0.0,0 STARLINK-5149,1 53981U 22125T   22353.41667824 -.00913840  00000-0 -26114-1 0  9993,2 53981  53.2175  85.9239 0001714  41.0951  82.0133 15.38149435 12070,6829.719,93.619,452.754,450.413,0.0
53981.0,STARLINK-5149,PAYLOAD,2022-12-19 22:00:00,15.37173978,0.0001556,53.2174,83.5779,39.2546,333.18300000000005,-0.027014,-0.0091549,0.0,0 STARLINK-5149,1 53981U 22125T   22353.91667824 -.00915490  00000-0 -27014-1 0  9991,2 53981  53.2174  83.5779 0001556  39.2546 333.1830 15.37173978  1301,6832.608,93.678,455.536,453.41,0.0
53981.0,STARLINK-5149,PAYLOAD,2022-12-20 06:00:00,15.36518886,0.0001807,53.2173,82.0159,33.7619,23.919,-0.027362,-0.00908414,0.0,0 STARLINK-5149,1 53981U 22125T   22354.25001157 -.00908414  00000-0 -27362-1 0  9994,2 53981  53.2173  82.0159 0001807  33.7619  23.9190 15.36518886 12209,6834.55,93.718,457.65,455.18,0.0
53981.0,STARLINK-5149,PAYLOAD,2022-12-20 14:00:01,15.35870984,0.0001571,53.2176,80.4571,48.051,54.0875,-0.028117,-0.00913598,0.0,0 STARLINK-5149,1 53981U 22125T   22354.58334491 -.00913598  00000-0 -28117-1 0  9998,2 53981  53.2176  80.4571 0001571  48.0510  54.0875 15.35870984  1302,6836.472,93.758,459.411,457.263,0.0
53981.0,STARLINK-5149,PAYLOAD,2022-12-21 06:00:00,15.34568569,0.0001679,53.2177,77.3385,47.785,140.9271,-0.029252,-0.00911669,0.0,0 STARLINK-5149,1 53981U 22125T   22355.25001157 -.00911669  00000-0 -29252-1 0  9991,2 53981  53.2177  77.3385 0001679  47.7850 140.9271 15.34568569 12357,6840.339,93.837,463.353,461.056,0.0
53981.0,STARLINK-5149,PAYLOAD,2022-12-21 14:00:01,15.33916953,0.0001720999999999,53.2176,75.7845,45.9802,184.844,-0.02985,-0.00911181,0.0,0 STARLINK-5149,1 53981U 22125T   22355.58334491 -.00911181  00000-0 -29850-1 0  9990,2 53981  53.2176  75.7845 0001721  45.9802 184.8440 15.33916953  1305,6842.276,93.877,465.319,462.964,0.0
53981.0,STARLINK-5149,PAYLOAD,2022-12-22 06:00:00,15.32615489,0.0001788,53.2177,72.6756,34.8412,277.8624,-0.031115,-0.00911328,0.0,0 STARLINK-5149,1 53981U 22125T   22356.25001157 -.00911328  00000-0 -31115-1 0  9995,2 53981  53.2177  72.6756 0001788  34.8412 277.8624 15.32615489 12500,6846.149,93.957,469.23800000000006,466.79,0.0
53981.0,STARLINK-5149,PAYLOAD,2022-12-22 14:00:01,15.31965423,0.000192,53.2176,71.1263,30.8375,321.6309,-0.031858,-0.0091393,0.0,0 STARLINK-5149,1 53981U 22125T   22356.58334491 -.00913930  00000-0 -31858-1 0  9996,2 53981  53.2176  71.1263 0001920  30.8375 321.6309 15.31965423  1307,6848.0859999999975,93.997,471.266,468.636,0.0
53981.0,STARLINK-5149,PAYLOAD,2022-12-22 22:00:00,15.31314098,0.0001885,53.2175,69.5752,30.0331,1.4201,-0.03251,-0.00913738,0.0,0 STARLINK-5149,1 53981U 22125T   22356.91667824 -.00913738  00000-0 -32510-1 0  9994,2 53981  53.2175  69.5752 0001885  30.0331   1.4201 15.31314098  1304,6850.028,94.037,473.184,470.601,0.0
